$$SOE
2460721.500000000, A.D. 2025-Feb-15 00:00:00.0000, -4.000832530913073E+08, 1.053194550921143E+08, -4.776569492413312E+06,
2460728.500000000, A.D. 2025-Feb-22 00:00:00.0000, -4.042360860033889E+08, 9.593181373711702E+07, -7.038112717055336E+06,
2460735.500000000, A.D. 2025-Mar-01 00:00:00.0000, -4.081153719209734E+08, 8.647921339427356E+07, -9.294896505671568E+06,
2460742.500000000, A.D. 2025-Mar-08 00:00:00.0000, -4.117219582299767E+08, 7.696878638387342E+07, -1.154547301734165E+07,
2460749.500000000, A.D. 2025-Mar-15 00:00:00.0000, -4.150568302466729E+08, 6.740752391853586E+07, -1.378843394259757E+07,
2460756.500000000, A.D. 2025-Mar-22 00:00:00.0000, -4.181211052605128E+08, 5.780227828685978E+07, -1.602240933900823E+07,
2460763.500000000, A.D. 2025-Mar-29 00:00:00.0000, -4.209160256390029E+08, 4.815976299620284E+07, -1.824606676002591E+07,
2460770.500000000, A.D. 2025-Apr-05 00:00:00.0000, -4.234429506525815E+08, 3.848655398169778E+07, -2.045811045469471E+07,
2460777.500000000, A.D. 2025-Apr-12 00:00:00.0000, -4.257033489329542E+08, 2.878909195514546E+07, -2.265728045756477E+07,
2460784.500000000, A.D. 2025-Apr-19 00:00:00.0000, -4.276987917441640E+08, 1.907368498780378E+07, -2.484235162873051E+07,
2460791.500000000, A.D. 2025-Apr-26 00:00:00.0000, -4.294309467852727E+08, 9.346511105303749E+06, -2.701213269022240E+07,
2460798.500000000, A.D. 2025-May-03 00:00:00.0000, -4.309015723978839E+08, -3.863791023047622E+05, -2.916546527149463E+07,
2460805.500000000, A.D. 2025-May-10 00:00:00.0000, -4.321125121346962E+08, -1.011905986216159E+07, -3.130122296904847E+07,
2460812.500000000, A.D. 2025-May-17 00:00:00.0000, -4.330656896365565E+08, -1.984572764781369E+07, -3.341831042946048E+07,
2460819.500000000, A.D. 2025-May-24 00:00:00.0000, -4.337631036285318E+08, -2.956069872459560E+07, -3.551566247831703E+07,
2460826.500000000, A.D. 2025-May-31 00:00:00.0000, -4.342068226020384E+08, -3.925840651318339E+07, -3.759224330967587E+07,
2460833.500000000, A.D. 2025-Jun-07 00:00:00.0000, -4.343989795690745E+08, -4.893339757851319E+07, -3.964704560219479E+07,
2460840.500000000, A.D. 2025-Jun-14 00:00:00.0000, -4.343417692393178E+08, -5.858032692238951E+07, -4.167908940084080E+07,
2460847.500000000, A.D. 2025-Jun-21 00:00:00.0000, -4.340374463920569E+08, -6.819395586132662E+07, -4.368742114461105E+07,
2460854.500000000, A.D. 2025-Jun-28 00:00:00.0000, -4.334883223034371E+08, -7.776915073226613E+07, -4.567111298401079E+07,
2460861.500000000, A.D. 2025-Jul-05 00:00:00.0000, -4.326967607319726E+08, -8.730088027606285E+07, -4.762926207314205E+07,
2460868.500000000, A.D. 2025-Jul-12 00:00:00.0000, -4.316651746402323E+08, -9.678421251145808E+07, -4.956098979322004E+07,
2460875.500000000, A.D. 2025-Jul-19 00:00:00.0000, -4.303960234526492E+08, -1.062143116815652E+08, -5.146544097254919E+07,
2460882.500000000, A.D. 2025-Jul-26 00:00:00.0000, -4.288918106300899E+08, -1.155864353347251E+08, -5.334178312741340E+07,
2460889.500000000, A.D. 2025-Aug-02 00:00:00.0000, -4.271550814862139E+08, -1.248959315222158E+08, -5.518920572835831E+07,
2460896.500000000, A.D. 2025-Aug-09 00:00:00.0000, -4.251884212126168E+08, -1.341382361310404E+08, -5.700691949522879E+07,
2460903.500000000, A.D. 2025-Aug-16 00:00:00.0000, -4.229944530266097E+08, -1.433088704181998E+08, -5.879415573309806E+07,
2460910.500000000, A.D. 2025-Aug-23 00:00:00.0000, -4.205758361402930E+08, -1.524034387326866E+08, -6.055016573439557E+07,
2460917.500000000, A.D. 2025-Aug-30 00:00:00.0000, -4.179352632135314E+08, -1.614176257133822E+08, -6.227422021872697E+07,
2460924.500000000, A.D. 2025-Sep-06 00:00:00.0000, -4.150754587005076E+08, -1.703471919646235E+08, -6.396560859810383E+07,
2460931.500000000, A.D. 2025-Sep-13 00:00:00.0000, -4.119991797530382E+08, -1.791879706948732E+08, -6.562363811700428E+07,
2460938.500000000, A.D. 2025-Sep-20 00:00:00.0000, -4.087092164019300E+08, -1.879358669652983E+08, -6.724763330201593E+07,
2460945.500000000, A.D. 2025-Sep-27 00:00:00.0000, -4.052083899523299E+08, -1.965868564372698E+08, -6.883693556363457E+07,
2460952.500000000, A.D. 2025-Oct-04 00:00:00.0000, -4.014995516026672E+08, -2.051369830795412E+08, -7.039090272040769E+07,
2460959.500000000, A.D. 2025-Oct-11 00:00:00.0000, -3.975855816538622E+08, -2.135823567791160E+08, -7.190890848766640E+07,
2460966.500000000, A.D. 2025-Oct-18 00:00:00.0000, -3.934693890196902E+08, -2.219191511317971E+08, -7.339034197929777E+07,
2460973.500000000, A.D. 2025-Oct-25 00:00:00.0000, -3.891539108945627E+08, -2.301436014024876E+08, -7.483460723473658E+07,
2460980.500000000, A.D. 2025-Nov-01 00:00:00.0000, -3.846421125354961E+08, -2.382520026400246E+08, -7.624112277376722E+07,
2460987.500000000, A.D. 2025-Nov-08 00:00:00.0000, -3.799369871199735E+08, -2.462407079776402E+08, -7.760932118500108E+07,
2460994.500000000, A.D. 2025-Nov-15 00:00:00.0000, -3.750415555280893E+08, -2.541061271767417E+08, -7.893864876633555E+07,
2461001.500000000, A.D. 2025-Nov-22 00:00:00.0000, -3.699588656422473E+08, -2.618447251925101E+08, -8.022856523598149E+07,
2461008.500000000, A.D. 2025-Nov-29 00:00:00.0000, -3.646919913127571E+08, -2.694530196246303E+08, -8.147854340645236E+07,
2461015.500000000, A.D. 2025-Dec-06 00:00:00.0000, -3.592440332609611E+08, -2.769275771882666E+08, -8.268806862278116E+07,
2461022.500000000, A.D. 2025-Dec-13 00:00:00.0000, -3.536181214812645E+08, -2.842650125769328E+08, -8.385663827993007E+07,
2461029.500000000, A.D. 2025-Dec-20 00:00:00.0000, -3.478174156465945E+08, -2.914619886965511E+08, -8.498376165688989E+07,
2461036.500000000, A.D. 2025-Dec-27 00:00:00.0000, -3.418451045900480E+08, -2.985152156804788E+08, -8.606895975794294E+07,
2461043.500000000, A.D. 2026-Jan-03 00:00:00.0000, -3.357044063205172E+08, -3.054214493007468E+08, -8.711176507784298E+07,
2461050.500000000, A.D. 2026-Jan-10 00:00:00.0000, -3.293985684606822E+08, -3.121774894537698E+08, -8.811172135649507E+07,
2461057.500000000, A.D. 2026-Jan-17 00:00:00.0000, -3.229308688729404E+08, -3.187801788116406E+08, -8.906838335195370E+07,
2461064.500000000, A.D. 2026-Jan-24 00:00:00.0000, -3.163046163937106E+08, -3.252264016159760E+08, -8.998131663702711E+07,
2461071.500000000, A.D. 2026-Jan-31 00:00:00.0000, -3.095231516511324E+08, -3.315130826212397E+08, -9.085009742213708E+07,
2461078.500000000, A.D. 2026-Feb-07 00:00:00.0000, -3.025898479030417E+08, -3.376371862444001E+08, -9.167431241456273E+07,
2461085.500000000, A.D. 2026-Feb-14 00:00:00.0000, -2.955081116405430E+08, -3.435957159359328E+08, -9.245355873834345E+07,
2461092.500000000, A.D. 2026-Feb-21 00:00:00.0000, -2.882813825681250E+08, -3.493857131950381E+08, -9.318744390307266E+07,
2461099.500000000, A.D. 2026-Feb-28 00:00:00.0000, -2.809131340435224E+08, -3.550042550755365E+08, -9.387558562759614E+07,
2461106.500000000, A.D. 2026-Mar-07 00:00:00.0000, -2.734068760338247E+08, -3.604484521328756E+08, -9.451761148899601E+07,
2461113.500000000, A.D. 2026-Mar-14 00:00:00.0000, -2.657661578106982E+08, -3.657154491469873E+08, -9.511315884244911E+07,
2461120.500000000, A.D. 2026-Mar-21 00:00:00.0000, -2.579945686016807E+08, -3.708024257254443E+08, -9.566187493927778E+07,
2461127.500000000, A.D. 2026-Mar-28 00:00:00.0000, -2.500957382067930E+08, -3.757065957597256E+08, -9.616341697504711E+07,
2461134.500000000, A.D. 2026-Apr-04 00:00:00.0000, -2.420733381833607E+08, -3.804252067013420E+08, -9.661745209116644E+07,
2461141.500000000, A.D. 2026-Apr-11 00:00:00.0000, -2.339310833239051E+08, -3.849555390192621E+08, -9.702365738448223E+07,
2461148.500000000, A.D. 2026-Apr-18 00:00:00.0000, -2.256727332665181E+08, -3.892949058475794E+08, -9.738171994022697E+07,
2461155.500000000, A.D. 2026-Apr-25 00:00:00.0000, -2.173020941909235E+08, -3.934406528115757E+08, -9.769133689182353E+07,
2461162.500000000, A.D. 2026-May-02 00:00:00.0000, -2.088230205689679E+08, -3.973901580648056E+08, -9.795221551337436E+07,
2461169.500000000, A.D. 2026-May-09 00:00:00.0000, -2.002394168445039E+08, -4.011408326062634E+08, -9.816407336217977E+07,
2461176.500000000, A.D. 2026-May-16 00:00:00.0000, -1.915552386641842E+08, -4.046901207419840E+08, -9.832663849503322E+07,
2461183.500000000, A.D. 2026-May-23 00:00:00.0000, -1.827744936066529E+08, -4.080354996712132E+08, -9.843964967975141E+07,
2461190.500000000, A.D. 2026-May-30 00:00:00.0000, -1.739012434873197E+08, -4.111744778797387E+08, -9.850285638525245E+07,
2461197.500000000, A.D. 2026-Jun-06 00:00:00.0000, -1.649396085538567E+08, -4.141045956166489E+08, -9.851601878883323E+07,
2461204.500000000, A.D. 2026-Jun-13 00:00:00.0000, -1.558937699044757E+08, -4.168234272602283E+08, -9.847890812161192E+07,
2461211.500000000, A.D. 2026-Jun-20 00:00:00.0000, -1.467679706289005E+08, -4.193285826523573E+08, -9.839130706846011E+07,
2461218.500000000, A.D. 2026-Jun-27 00:00:00.0000, -1.375665173693579E+08, -4.216177077464941E+08, -9.825301009582302E+07,
2461225.500000000, A.D. 2026-Jul-04 00:00:00.0000, -1.282937823005218E+08, -4.236884853493803E+08, -9.806382377223063E+07,
2461232.500000000, A.D. 2026-Jul-11 00:00:00.0000, -1.189542052732764E+08, -4.255386360938675E+08, -9.782356711714962E+07,
2461239.500000000, A.D. 2026-Jul-18 00:00:00.0000, -1.095522960283352E+08, -4.271659196228667E+08, -9.753207198621905E+07,
2461246.500000000, A.D. 2026-Jul-25 00:00:00.0000, -1.000926364541143E+08, -4.285681359876876E+08, -9.718918349647802E+07,
2461253.500000000, A.D. 2026-Aug-01 00:00:00.0000, -9.057988283969119E+07, -4.297431273146834E+08, -9.679476050119963E+07,
2461260.500000000, A.D. 2026-Aug-08 00:00:00.0000, -8.101876790634188E+07, -4.306887797813089E+08, -9.634867613770798E+07,
2461267.500000000, A.D. 2026-Aug-15 00:00:00.0000, -7.141410219972697E+07, -4.314030254563130E+08, -9.585081844988760E+07,
2461274.500000000, A.D. 2026-Aug-22 00:00:00.0000, -6.177077559955733E+07, -4.318838427885505E+08, -9.530109091644922E+07,
2461281.500000000, A.D. 2026-Aug-29 00:00:00.0000, -5.209376123068576E+07, -4.321292571239106E+08, -9.469941278839684E+07,
$$EOE